[
    {
        "Altitude(m)": 617710.6418426036,
        "Argument of Periapsis(deg)": 0.0,
        "Eccentricity": 0.0,
        "Inclination(deg)": 60.0,
        "Latitude(deg)": -41.10266604832841,
        "Longitude(deg)": 44.96673213947344,
        "Mean Anomaly(deg)": -49.09089999999994,
        "RAAN(deg)": 175.0,
        "Satellite Name": "Test1 789",
        "Satellite Number": 789,
        "Semi-Major Axis(m)": 6980739.136638005,
        "Time(s)": 0
    },
    {
        "Altitude(m)": 617517.939953831,
        "Argument of Periapsis(deg)": 0.00010418945913296404,
        "Eccentricity": 0.0,
        "Inclination(deg)": 60.0,
        "Latitude(deg)": -40.63687198105764,
        "Longitude(deg)": 45.46352412224333,
        "Mean Anomaly(deg)": -48.470793854538094,
        "RAAN(deg)": 174.99957995086024,
        "Satellite Name": "Test1 789",
        "Satellite Number": 789,
        "Semi-Major Axis(m)": 6980739.136638005,
        "Time(s)": 10
    }
]